{
  "norad_id": 62725,
  "name": "PRSC-EO1",
  "history": [
    {
      "epoch": "2026-04-17T22:18:21.785184Z",
      "apogee_km": 518.6352957277204,
      "perigee_km": 507.4190990567613,
      "latitude_deg": 7.814657004484673e-05,
      "longitude_deg": 0.9113991795259301,
      "height_km": 517.5895532688941,
      "semi_major_axis_km": 6891.164197392241,
      "eccentricity": 0.00081381,
      "inclination_deg": 97.4249,
      "raan_deg": 181.5579,
      "arg_perigee_deg": 105.4222,
      "mean_anomaly_deg": 254.7912,
      "mean_motion_rev_day": 15.17622878
    },
    {
      "epoch": "2026-04-18T18:52:39.241920Z",
      "apogee_km": 518.6591728710664,
      "perigee_km": 507.3260211358338,
      "latitude_deg": 1.5614259088574328e-06,
      "longitude_deg": 52.334530648202076,
      "height_km": 517.3462901715038,
      "semi_major_axis_km": 6891.12959700345,
      "eccentricity": 0.0008223,
      "inclination_deg": 97.4249,
      "raan_deg": 182.3986,
      "arg_perigee_deg": 103.0875,
      "mean_anomaly_deg": 257.1277,
      "mean_motion_rev_day": 15.17634308
    },
    {
      "epoch": "2026-04-19T20:11:46.347360Z",
      "apogee_km": 518.608424640649,
      "perigee_km": 507.3166689232912,
      "latitude_deg": -1.3010892703286688e-05,
      "longitude_deg": 32.549725863121594,
      "height_km": 517.0314055053459,
      "semi_major_axis_km": 6891.099546781969,
      "eccentricity": 0.0008193,
      "inclination_deg": 97.4244,
      "raan_deg": 183.4332,
      "arg_perigee_deg": 100.1863,
      "mean_anomaly_deg": 260.0295,
      "mean_motion_rev_day": 15.17644235
    },
    {
      "epoch": "2026-04-20T15:11:06.208800Z",
      "apogee_km": 518.5714875689573,
      "perigee_km": 507.30843573975017,
      "latitude_deg": 6.0172653484551397e-05,
      "longitude_deg": 107.71331440525995,
      "height_km": 516.7923456109118,
      "semi_major_axis_km": 6891.076961654353,
      "eccentricity": 0.00081722,
      "inclination_deg": 97.4243,
      "raan_deg": 184.2094,
      "arg_perigee_deg": 97.9832,
      "mean_anomaly_deg": 262.233,
      "mean_motion_rev_day": 15.17651696
    },
    {
      "epoch": "2026-04-21T05:25:35.777856Z",
      "apogee_km": 518.5446235659138,
      "perigee_km": 507.28684853208506,
      "latitude_deg": -5.4263133931910516e-05,
      "longitude_deg": -105.9129561201142,
      "height_km": 516.5916680563248,
      "semi_major_axis_km": 6891.052736049,
      "eccentricity": 0.00081684,
      "inclination_deg": 97.4241,
      "raan_deg": 184.7912,
      "arg_perigee_deg": 96.1777,
      "mean_anomaly_deg": 264.0387,
      "mean_motion_rev_day": 15.17659699
    },
    {
      "epoch": "2026-04-22T20:59:09.782592Z",
      "apogee_km": 518.4584411763499,
      "perigee_km": 507.2454239852541,
      "latitude_deg": -5.1574238585303055e-05,
      "longitude_deg": 20.68740427227161,
      "height_km": 516.1261778120313,
      "semi_major_axis_km": 6890.988932580802,
      "eccentricity": 0.0008136,
      "inclination_deg": 97.424,
      "raan_deg": 186.4079,
      "arg_perigee_deg": 92.0866,
      "mean_anomaly_deg": 268.1299,
      "mean_motion_rev_day": 15.17680777
    },
    {
      "epoch": "2026-04-23T14:23:31.324704Z",
      "apogee_km": 518.4260578235326,
      "perigee_km": 507.2198409346538,
      "latitude_deg": -5.063610940464924e-05,
      "longitude_deg": 119.59440562133676,
      "height_km": 515.8975869492515,
      "semi_major_axis_km": 6890.959949379093,
      "eccentricity": 0.00081311,
      "inclination_deg": 97.424,
      "raan_deg": 187.1195,
      "arg_perigee_deg": 90.0466,
      "mean_anomaly_deg": 270.1699,
      "mean_motion_rev_day": 15.17690352
    },
    {
      "epoch": "2026-04-24T20:27:24.128640Z",
      "apogee_km": 518.3653806165939,
      "perigee_km": 507.1910724852196,
      "latitude_deg": -4.267796460399177e-06,
      "longitude_deg": 28.6182697013104,
      "height_km": 515.5101605163215,
      "semi_major_axis_km": 6890.9152265509065,
      "eccentricity": 0.0008108,
      "inclination_deg": 97.4241,
      "raan_deg": 188.3481,
      "arg_perigee_deg": 86.5299,
      "mean_anomaly_deg": 273.6862,
      "mean_motion_rev_day": 15.17705127
    },
    {
      "epoch": "2026-04-25T20:11:30.196608Z",
      "apogee_km": 518.2948412787682,
      "perigee_km": 507.1715985697665,
      "latitude_deg": -4.718401602173076e-06,
      "longitude_deg": 32.588223789349684,
      "height_km": 515.2047591661415,
      "semi_major_axis_km": 6890.870219924267,
      "eccentricity": 0.0008071,
      "inclination_deg": 97.4242,
      "raan_deg": 189.3181,
      "arg_perigee_deg": 83.8201,
      "mean_anomaly_deg": 276.3952,
      "mean_motion_rev_day": 15.17719996
    },
    {
      "epoch": "2026-04-26T23:05:27.936960Z",
      "apogee_km": 518.1653351703835,
      "perigee_km": 507.18207198994696,
      "latitude_deg": 1.2601956778377793e-05,
      "longitude_deg": -10.908080696814187,
      "height_km": 514.8275283234452,
      "semi_major_axis_km": 6890.810703580165,
      "eccentricity": 0.00079695,
      "inclination_deg": 97.4243,
      "raan_deg": 190.4171,
      "arg_perigee_deg": 80.3897,
      "mean_anomaly_deg": 279.8237,
      "mean_motion_rev_day": 15.17739659
    },
    {
      "epoch": "2026-04-27T21:14:35.703744Z",
      "apogee_km": 518.0839099086043,
      "perigee_km": 507.1606782756098,
      "latitude_deg": 4.1276496485114755e-05,
      "longitude_deg": 16.805197956300088,
      "height_km": 514.5519201510315,
      "semi_major_axis_km": 6890.759294092107,
      "eccentricity": 0.0007926,
      "inclination_deg": 97.4245,
      "raan_deg": 191.3225,
      "arg_perigee_deg": 77.9388,
      "mean_anomaly_deg": 282.2734,
      "mean_motion_rev_day": 15.17756644
    },
    {
      "epoch": "2026-04-28T08:19:09.289056Z",
      "apogee_km": 518.051441607442,
      "perigee_km": 507.15029430033974,
      "latitude_deg": -5.903504123344029e-06,
      "longitude_deg": -149.33690937851745,
      "height_km": 514.4332415174911,
      "semi_major_axis_km": 6890.737867953891,
      "eccentricity": 0.000791,
      "inclination_deg": 97.4245,
      "raan_deg": 191.7752,
      "arg_perigee_deg": 76.8651,
      "mean_anomaly_deg": 283.3465,
      "mean_motion_rev_day": 15.17763723
    },
    {
      "epoch": "2026-04-29T19:07:58.791936Z",
      "apogee_km": 518.1531976587139,
      "perigee_km": 507.94459487198674,
      "latitude_deg": -2.8945788320093805e-05,
      "longitude_deg": 48.4494823323627,
      "height_km": 514.43567872432,
      "semi_major_axis_km": 6891.1858962653505,
      "eccentricity": 0.0007407,
      "inclination_deg": 97.4243,
      "raan_deg": 193.1976,
      "arg_perigee_deg": 70.7161,
      "mean_anomaly_deg": 289.4873,
      "mean_motion_rev_day": 15.1761571
    },
    {
      "epoch": "2026-04-30T03:02:42.542592Z",
      "apogee_km": 518.0838843176061,
      "perigee_km": 507.9969922540886,
      "latitude_deg": 2.6434929251354922e-05,
      "longitude_deg": -70.2346598279977,
      "height_km": 514.3481715956955,
      "semi_major_axis_km": 6891.177438285847,
      "eccentricity": 0.00073187,
      "inclination_deg": 97.4242,
      "raan_deg": 193.5207,
      "arg_perigee_deg": 69.5146,
      "mean_anomaly_deg": 290.6873,
      "mean_motion_rev_day": 15.17618504
    },
    {
      "epoch": "2026-05-02T12:00:42.144192Z",
      "apogee_km": 517.8781681305054,
      "perigee_km": 507.91373448291506,
      "latitude_deg": 6.413785304048753e-05,
      "longitude_deg": 155.2550590938611,
      "height_km": 513.7697086649902,
      "semi_major_axis_km": 6891.03295130671,
      "eccentricity": 0.000723,
      "inclination_deg": 97.4239,
      "raan_deg": 195.8483,
      "arg_perigee_deg": 63.7974,
      "mean_anomaly_deg": 296.4003,
      "mean_motion_rev_day": 15.17666235
    },
    {
      "epoch": "2026-05-03T21:14:29.425920Z",
      "apogee_km": 517.7039799283748,
      "perigee_km": 507.94500026609876,
      "latitude_deg": -2.9353549106007427e-05,
      "longitude_deg": 16.801260820871896,
      "height_km": 513.424713864395,
      "semi_major_axis_km": 6890.9614900972365,
      "eccentricity": 0.0007081,
      "inclination_deg": 97.4235,
      "raan_deg": 197.2062,
      "arg_perigee_deg": 59.5301,
      "mean_anomaly_deg": 300.6631,
      "mean_motion_rev_day": 15.17689843
    },
    {
      "epoch": "2026-05-04T20:58:36.424416Z",
      "apogee_km": 517.646899012434,
      "perigee_km": 507.91416708875295,
      "latitude_deg": -6.139984954648526e-05,
      "longitude_deg": 20.76722789937385,
      "height_km": 513.1870603316665,
      "semi_major_axis_km": 6890.917533050593,
      "eccentricity": 0.0007062,
      "inclination_deg": 97.4234,
      "raan_deg": 198.1761,
      "arg_perigee_deg": 56.7463,
      "mean_anomaly_deg": 303.4446,
      "mean_motion_rev_day": 15.17704365
    },
    {
      "epoch": "2026-05-05T20:42:42.346368Z",
      "apogee_km": 517.5632064911706,
      "perigee_km": 507.887057885152,
      "latitude_deg": 1.6186952971813966e-05,
      "longitude_deg": 24.737578345532743,
      "height_km": 512.9577023934951,
      "semi_major_axis_km": 6890.862132188161,
      "eccentricity": 0.0007021,
      "inclination_deg": 97.4233,
      "raan_deg": 199.1459,
      "arg_perigee_deg": 54.0124,
      "mean_anomaly_deg": 306.176,
      "mean_motion_rev_day": 15.17722668
    }
  ]
}